SL-3 R/B                
1 19046U 88032B   23063.88138671  .00006270  00000+0  43756-3 0  9999
2 19046  97.4086  56.7377 0037446  71.3234 289.2052 15.05133496885764
SL-16 R/B               
1 19120U 88039B   23063.73536213  .00000213  00000+0  12415-3 0  9996
2 19120  71.0129 235.9078 0023758 232.2325 127.6648 14.19294239802157
COSMOS 1953             
1 19210U 88050A   23064.31404750  .00007393  00000+0  46372-3 0  9999
2 19210  82.5197 166.7873 0017671 356.6255   3.4852 15.09043604892002
SL-8 R/B                
1 19257U 88053B   23064.20697977  .00000687  00000+0  23628-3 0  9994
2 19257  74.0508 338.9704 0019201  72.0636  37.7430 14.37754411818650
COSMOS 1975             
1 19573U 88093A   23064.20858966  .00007569  00000+0  48722-3 0  9994
2 19573  82.5159 123.2556 0014966  36.6437 323.5812 15.08135283873734
SL-14 R/B               
1 19574U 88093B   23064.31512983  .00001261  00000+0  14893-3 0  9998
2 19574  82.5356 353.3331 0023006  75.1239  43.9078 14.83742831858852
SL-16 R/B               
1 19650U 88102B   23063.95056627 -.00000137  00000+0 -45059-4 0  9993
2 19650  71.0007 307.0173 0016510 249.5238 110.4113 14.15870084771076
INTERCOSMOS 24          
1 20261U 89080A   23064.13000691  .00001558  00000+0  46861-3 0  9997
2 20261  82.5992  98.9280 1199137 321.3065  30.7732 12.56774873527988
SL-14 R/B               
1 20262U 89080C   23063.65705262  .00001127  00000+0  33678-3 0  9994
2 20262  82.5967 159.5846 1236225 179.0611 181.3267 12.49240535522603
DELTA 2 R/B(1)          
1 20303U 89085B   23064.48391738  .00066279  00000+0  11265-2 0  9992
2 20303  35.6333 216.1171 0061778  57.1184 303.5475 15.48131588820187
DELTA 1 R/B             
1 20323U 89089B   23064.45588358  .00001250  00000+0  33003-3 0  9994
2 20323  97.0659  68.9046 0071145 353.6794   6.3498 14.48735219756851
ARIANE 40 R/B           
1 20443U 90005H   23063.73681420  .00000699  00000+0  24329-3 0  9998
2 20443  98.4507 132.9527 0009266 266.7420  93.2707 14.38406754734450
DELTA 2 R/B(1)          
1 20453U 90008B   23064.36036032  .00016859  00000+0  81113-3 0  9994
2 20453  35.6226 150.5510 0249191 328.9209  29.6974 14.94701382758888
COSMOS 2058             
1 20465U 90010A   23063.89868647  .00004847  00000+0  38780-3 0  9998
2 20465  82.4880  39.4614 0016745  98.9724 261.3396 14.99886500776659
SL-14 R/B               
1 20466U 90010B   23064.17345796  .00001141  00000+0  14133-3 0  9996
2 20466  82.5025 219.4464 0019603 325.8067  34.1883 14.81762832786473
SL-14 R/B               
1 20511U 90018B   23063.71700008  .00001023  00000+0  13061-3 0  9993
2 20511  82.5261 170.7039 0018705 108.5274   3.8333 14.80416386759596
HST                     
1 20580U 90037B   23063.90486382  .00007270  00000+0  39996-3 0  9992
2 20580  28.4683 241.3887 0002500 344.1557 133.8005 15.12178946605912
SL-16 R/B               
1 20625U 90046B   23063.56451192 -.00000181  00000+0 -68980-4 0  9997
2 20625  70.9972  89.9214 0014434 187.9378 172.1518 14.14731083692647
COSMOS 2084             
1 20663U 90055A   23063.64826773  .00005599  00000+0  45281-3 0  9993
2 20663  62.7914  98.8811 0132929  75.7385 285.8431 14.94214371771152
SL-6 R/B(2)             
1 20666U 90055D   23063.38839129  .00006207  00000+0  50073-3 0  9998
2 20666  62.7860  13.5934 0130610  97.4557 264.1399 14.94388347773084
SL-8 R/B                
1 20775U 90078B   23063.92113997  .00017637  00000+0  79819-3 0  9990
2 20775  82.9220 125.4698 0527809 350.5836   8.5746 14.45604055648059
SL-8 R/B                
1 21088U 91006B   23063.85410708  .00000047  00000+0  32208-4 0  9991
2 21088  82.9383 268.8165 0021442 236.6422 133.8515 13.77241378612534
OKEAN-3                 
1 21397U 91039A   23063.81618348  .00004449  00000+0  40561-3 0  9996
2 21397  82.5231 314.6012 0018936  91.6625 268.6766 14.94777544700053
COSMOS 2151             
1 21422U 91042A   23063.84356892  .00003521  00000+0  33238-3 0  9998
2 21422  82.4974  59.5242 0014557 155.7654 204.4255 14.93407178719686
SL-14 R/B               
1 21423U 91042B   23063.80925816  .00000999  00000+0  12849-3 0  9994
2 21423  82.4969 171.1581 0016149 252.8731 107.0714 14.80152495690133
ERS-1                   
1 21574U 91050A   23063.65847228  .00000579  00000+0  20525-3 0  9997
2 21574  98.7325  41.1397 0031905 225.2128 134.6463 14.38054093657417
ARIANE 40 R/B           
1 21610U 91050F   23063.90188886  .00000819  00000+0  26660-3 0  9997
2 21610  98.3489 132.9465 0003916 146.6809 213.4628 14.41262730660611
INTERCOSMOS 25          
1 21819U 91086A   23064.50559018  .00001919  00000+0  38445-3 0  9999
2 21819  82.5994 252.2736 1511424 318.5601  30.9908 12.06513158363710
SL-8 R/B                
1 21876U 92008B   23064.29471229  .00000131  00000+0  11923-3 0  9997
2 21876  82.9311   5.9298 0034230 329.8037 184.4047 13.75739918558332
SL-8 R/B                
1 21938U 92020B   23064.07396255  .00000246  00000+0  24007-3 0  9995
2 21938  82.9264 251.0735 0030171 128.1046 354.2014 13.75333439550137
COSMOS 2219             
1 22219U 92076A   23064.33545029 -.00000071  00000+0 -12754-4 0  9998
2 22219  71.0614 157.6718 0015564  79.0364 281.2509 14.13743399563175
SL-16 R/B               
1 22220U 92076B   23064.14437875  .00000008  00000+0  28106-4 0  9994
2 22220  71.0030 346.0436 0014084 323.9885 136.8119 14.16538960566292
COSMOS 2221             
1 22236U 92080A   23063.90871570  .00003673  00000+0  38501-3 0  9993
2 22236  82.5042 247.2427 0014990 273.2033  86.7470 14.89246055616581
SL-16 R/B               
1 22285U 92093B   23064.00510900  .00000317  00000+0  18775-3 0  9993
2 22285  71.0214 154.3348 0005149 210.9902 149.0918 14.15128234557747
COSMOS 2228             
1 22286U 92094A   23064.37501812  .00004723  00000+0  49059-3 0  9991
2 22286  82.5207 204.2048 0021106  30.5039 329.7402 14.89573030632925
SL-16 R/B               
1 22566U 93016B   23064.23216166  .00000402  00000+0  23201-3 0  9998
2 22566  71.0100   5.9431 0011355 208.7055 151.3444 14.15040983546491
COSMOS 2242             
1 22626U 93024A   23064.19039392  .00004257  00000+0  44479-3 0  9995
2 22626  82.5188 232.9390 0019176  32.2395 327.9991 14.89350224616526
SL-16 R/B               
1 22803U 93059B   23063.71052024  .00000043  00000+0  45129-4 0  9997
2 22803  70.9905 172.2842 0014944  87.7076 272.5759 14.16909793523567
ARIANE 40 R/B           
1 22830U 93061H   23063.93475779  .00000531  00000+0  21578-3 0  9993
2 22830  98.6288 130.7363 0009872 295.3541  64.6619 14.31693621536536
COSMOS 2278             
1 23087U 94023A   23063.96365778  .00000267  00000+0  16528-3 0  9992
2 23087  71.0544 317.1809 0010909 267.7438  92.2435 14.13922011489198
SL-16 R/B               
1 23088U 94023B   23064.43653682 -.00000029  00000+0  98800-5 0  9992
2 23088  70.9990 221.0338 0003738 210.1932 149.8976 14.14750859490736
SL-16 R/B               
1 23343U 94074B   23063.93743845  .00001051  00000+0  15509-3 0  9995
2 23343  97.8558 115.7330 0006669 183.1269 350.3264 14.77295167524616
SL-16 R/B               
1 23405U 94077B   23063.92549515  .00000063  00000+0  57146-4 0  9990
2 23405  70.9824 147.7766 0002116 340.6402  19.4640 14.15289727460474
ERS-2                   
1 23560U 95021A   23063.91122357  .00044636  00000+0  13582-2 0  9990
2 23560  98.5122  11.2294 0005411  56.0446 304.1307 15.33869022493115
ARIANE 40+ R/B          
1 23561U 95021B   23063.97052211  .00000693  00000+0  24236-3 0  9992
2 23561  98.5873 126.8437 0006990 182.2312 350.6250 14.38330518460932
SL-16 R/B               
1 23705U 95058B   23064.08890233 -.00000156  00000+0 -55981-4 0  9997
2 23705  71.0245 330.3947 0012924 345.8390  14.2369 14.15210883412428
SL-16 R/B               
1 24298U 96051B   23064.07226484  .00000154  00000+0  10947-3 0  9997
2 24298  70.8305 340.9111 0017057 311.0592  48.9053 14.12491911366490
ORBVIEW 2 (SEASTAR)     
1 24883U 97037A   23064.28868279  .00000887  00000+0  33431-3 0  9995
2 24883  98.7069 193.9821 0003183  74.0877 286.0658 14.33941165350940
SL-16 R/B               
1 25400U 98043G   23063.75650043  .00000201  00000+0  10360-3 0  9994
2 25400  98.6982   2.3414 0009493 338.2251  21.8524 14.25575572282106
SL-16 R/B               
1 25407U 98045B   23064.20798284  .00000342  00000+0  19769-3 0  9992
2 25407  71.0141 335.2948 0009791 264.4478  95.5529 14.15898212271588
ISS (ZARYA)             
1 25544U 98067A   23064.59569838  .00022651  00000+0  40768-3 0  9991
2 25544  51.6409 121.6717 0005861  58.4802  95.9363 15.49710030385729
CZ-4B R/B               
1 25732U 99025C   23063.88301317  .00000185  00000+0  11187-3 0  9993
2 25732  98.8196 108.9625 0036281 262.5918 270.6525 14.17788864232150
OKEAN-O                 
1 25860U 99039A   23063.85666344  .00001488  00000+0  21712-3 0  9993
2 25860  98.1046 110.4977 0000876  79.2616 280.8693 14.77278224271697
SL-16 R/B               
1 25861U 99039B   23063.61596715  .00001298  00000+0  18216-3 0  9996
2 25861  98.1529  99.5773 0014762 211.7548 148.2774 14.79138790273954
DELTA 2 R/B             
1 25876U 99041E   23063.81596537  .00005652  00000+0  98310-3 0  9990
2 25876  51.7663 358.3069 0526925 354.3559   5.1578 14.05913776207834
HELIOS 1B               
1 25977U 99064A   23063.85651630  .00001639  00000+0  20789-3 0  9993
2 25977  98.3052 273.4207 0002168  58.6318 301.5106 14.83170326521876
TERRA                   
1 25994U 99068A   23064.51213292  .00001258  00000+0  27717-3 0  9993
2 25994  98.1056 135.4222 0002470  62.3645 355.5589 14.59074811234669
SL-16 R/B               
1 26070U 00006B   23064.50411491 -.00000119  00000+0 -36604-4 0  9996
2 26070  70.9999 250.6022 0014700  51.5368 308.7072 14.15525038192831
TITAN 4B R/B            
1 26474U 00047B   23064.42911048  .00007489  00000+0  62209-3 0  9997
2 26474  67.9929 225.5923 0054618 192.6547 167.3230 14.98071358227596
